ONEWEB-0309             
1 49095U 21075W   26188.43992304 -.00000011  00000+0 -61161-4 0  9993
2 49095  87.9138   1.8332 0002332  96.1075 264.0322 13.17649469236246
ONEWEB-0310             
1 49096U 21075X   26188.43846670  .00000384  00000+0  10320-2 0  9998
2 49096  87.8954 346.6520 0001841  94.7083 265.4256 13.12442137237844
ONEWEB-0311             
1 49097U 21075Y   26187.91511220  .00000044  00000+0  79553-4 0  9999
2 49097  87.9137   1.9375 0001939  77.4882 282.6467 13.17647515236229
ONEWEB-0312             
1 49098U 21075Z   26188.46185988  .00000036  00000+0  60808-4 0  9993
2 49098  87.9137   1.8390 0002124  86.6133 273.5241 13.17647676236276
ONEWEB-0313             
1 49099U 21075AA  26188.46678393  .00000047  00000+0  88307-4 0  9997
2 49099  87.9135   1.8433 0001894  87.2914 272.8434 13.17649490236261
ONEWEB-0314             
1 49100U 21075AB  26188.43317455 -.00000001  00000+0 -36434-4 0  9992
2 49100  87.9146   1.8248 0002191  84.5065 275.6316 13.17650480236236
ONEWEB-0315             
1 49101U 21075AC  26188.41135622  .00000078  00000+0  18224-3 0  9993
2 49101  87.8960 346.6230 0001742  82.1912 277.9414 13.12443134237828
ONEWEB-0316             
1 49102U 21075AD  26187.35558598 -.00001674  00000+0 -42796-2 0  9992
2 49102  87.9185 331.6431 0002024  96.2200 263.9163 13.18672276239731
ONEWEB-0317             
1 49103U 21075AE  26188.41474627  .00000208  00000+0  54215-3 0  9991
2 49103  87.8959 346.6465 0002259 111.0363 249.1008 13.12443421237845
ONEWEB-0318             
1 49104U 21075AF  26188.33859252  .00000106  00000+0  23729-3 0  9997
2 49104  87.9188 331.4497 0001844  90.6868 269.4475 13.18686528239825
ONEWEB-0319             
1 49105U 21075AG  26188.44835148  .00000020  00000+0  18248-4 0  9994
2 49105  87.9137   1.8363 0001716  74.4174 285.7147 13.17650023236271
ONEWEB-0323             
1 49106U 21075AH  26187.93868277 -.00000326  00000+0 -94243-3 0  9996
2 49106  87.8962 346.7221 0001888  77.0022 283.1318 13.12443169237147
ONEWEB-0329             
1 49107U 21075AJ  26188.45679292  .00000105  00000+0  23687-3 0  9999
2 49107  87.9139   1.8356 0001953  87.5054 272.6301 13.17650171236251
ONEWEB-0330             
1 49108U 21075AK  26188.58335648 -.00042090  00000+0 -10810+0 0  9999
2 49108  87.9155   1.8207 0002152  90.9508 130.7187 13.18170729  5234
ONEWEB-0292             
1 49186U 21083A   26187.89555389  .00000235  00000+0  60910-3 0  9996
2 49186  87.8970 316.3144 0001860  95.8623 264.2718 13.13468858233510
ONEWEB-0303             
1 49187U 21083B   26187.95582264  .00000067  00000+0  13620-3 0  9995
2 49187  87.9186 331.5243 0001834  90.8331 269.3011 13.18687961232583
ONEWEB-0306             
1 49188U 21083C   26188.32509056  .00000058  00000+0  11327-3 0  9998
2 49188  87.9192 331.4393 0002004 101.8838 258.2519 13.18684664232678
ONEWEB-0307             
1 49189U 21083D   26188.34668928  .00000430  00000+0  11438-2 0  9991
2 49189  87.8976 316.2230 0001852  95.6756 264.4585 13.13471294233578
ONEWEB-0320             
1 49190U 21083E   26188.34532787  .00000039  00000+0  65442-4 0  9997
2 49190  87.9179 331.4515 0001887  97.7296 262.4050 13.18687072232630
ONEWEB-0321             
1 49191U 21083F   26188.20082135  .00000007  00000+0 -15473-4 0  9995
2 49191  87.9191 270.4468 0002180 106.9376 253.1997 13.20773300239472
ONEWEB-0322             
1 49192U 21083G   26188.34247080  .00000388  00000+0  10283-2 0  9996
2 49192  87.8973 316.2233 0001842 113.2084 246.9239 13.13470329233560
ONEWEB-0324             
1 49193U 21083H   26187.93897925  .00000035  00000+0  55862-4 0  9993
2 49193  87.9192 331.5215 0002072  96.0145 264.1223 13.18686326232607
ONEWEB-0325             
1 49194U 21083J   26188.39760462  .00000052  00000+0  98513-4 0  9999
2 49194  87.9182 331.4368 0001800  98.0582 262.0754 13.18687150232679
ONEWEB-0326             
1 49195U 21083K   26188.33705511  .00000069  00000+0  14108-3 0  9993
2 49195  87.9190 331.4485 0001740  88.5738 271.5594 13.18686476232654
ONEWEB-0327             
1 49196U 21083L   26188.41265093  .00000086  00000+0  18581-3 0  9997
2 49196  87.9180 331.4360 0001565  87.7670 272.3641 13.18686402232681
ONEWEB-0328             
1 49197U 21083M   26188.33230894  .00000238  00000+0  61546-3 0  9998
2 49197  87.8988 316.2000 0002029  97.5741 262.5619 13.13469902233544
ONEWEB-0331             
1 49198U 21083N   26187.95076538  .00000069  00000+0  14110-3 0  9996
2 49198  87.9192 331.5191 0001831  85.0797 275.0544 13.18684389232613
ONEWEB-0333             
1 49199U 21083P   26188.55576075 -.00000030  00000+0 -11744-3 0  9995
2 49199  87.8973 316.1805 0001850  99.7268 260.4070 13.13470043233581
ONEWEB-0334             
1 49200U 21083Q   26188.21511764  .00000026  00000+0  31114-4 0  9992
2 49200  87.9191 270.4540 0002172 121.7214 238.4131 13.20774579239432
ONEWEB-0335             
1 49201U 21083R   26188.47448400 -.00000003  00000+0 -42748-4 0  9999
2 49201  87.8973 316.1936 0001908  93.9043 266.2305 13.13472652233584
