OBJECT_NAME,OBJECT_ID,EPOCH,MEAN_MOTION,ECCENTRICITY,INCLINATION,RA_OF_ASC_NODE,ARG_OF_PERICENTER,MEAN_ANOMALY,EPHEMERIS_TYPE,CLASSIFICATION_TYPE,NORAD_CAT_ID,ELEMENT_SET_NO,REV_AT_EPOCH,BSTAR,MEAN_MOTION_DOT,MEAN_MOTION_DDOT
ONEWEB-0309,2021-075W,2026-07-07T10:33:29.350656,13.17649469,.00023327,87.9138,1.8332,96.1075,264.0322,0,U,49095,999,23624,-.61161039E-4,-.11E-6,0
ONEWEB-0310,2021-075X,2026-07-07T10:31:23.522880,13.12442137,.00018417,87.8954,346.6520,94.7083,265.4256,0,U,49096,999,23784,.10320458E-2,.384E-5,0
ONEWEB-0311,2021-075Y,2026-07-06T21:57:45.694080,13.17647515,.00019398,87.9137,1.9375,77.4882,282.6467,0,U,49097,999,23622,.79552945E-4,.44E-6,0
ONEWEB-0312,2021-075Z,2026-07-07T11:05:04.693632,13.17647676,.00021247,87.9137,1.8390,86.6133,273.5241,0,U,49098,999,23627,.60807738E-4,.36E-6,0
ONEWEB-0313,2021-075AA,2026-07-07T11:12:10.131552,13.17649490,.0001894,87.9135,1.8433,87.2914,272.8434,0,U,49099,999,23626,.8830716E-4,.47E-6,0
ONEWEB-0314,2021-075AB,2026-07-07T10:23:46.281120,13.17650480,.00021912,87.9146,1.8248,84.5065,275.6316,0,U,49100,999,23623,-.36434114E-4,-.1E-7,0
ONEWEB-0315,2021-075AC,2026-07-07T09:52:21.177408,13.12443134,.00017421,87.8960,346.6230,82.1912,277.9414,0,U,49101,999,23782,.1822406E-3,.78E-6,0
ONEWEB-0316,2021-075AD,2026-07-06T08:32:02.628672,13.18672276,.00020246,87.9185,331.6431,96.2200,263.9163,0,U,49102,999,23973,-.42795517E-2,-.1674E-4,0
ONEWEB-0317,2021-075AE,2026-07-07T09:57:14.077728,13.12443421,.00022592,87.8959,346.6465,111.0363,249.1008,0,U,49103,999,23784,.54215467E-3,.208E-5,0
ONEWEB-0318,2021-075AF,2026-07-07T08:07:34.393728,13.18686528,.00018442,87.9188,331.4497,90.6868,269.4475,0,U,49104,999,23982,.23729291E-3,.106E-5,0
ONEWEB-0319,2021-075AG,2026-07-07T10:45:37.567872,13.17650023,.00017161,87.9137,1.8363,74.4174,285.7147,0,U,49105,999,23627,.1824777E-4,.2E-6,0
ONEWEB-0323,2021-075AH,2026-07-06T22:31:42.191328,13.12443169,.00018885,87.8962,346.7221,77.0022,283.1318,0,U,49106,999,23714,-.94242619E-3,-.326E-5,0
ONEWEB-0329,2021-075AJ,2026-07-07T10:57:46.908288,13.17650171,.00019535,87.9139,1.8356,87.5054,272.6301,0,U,49107,999,23625,.23686929E-3,.105E-5,0
ONEWEB-0330,2021-075AK,2026-07-07T14:00:01.999872,13.18170729,.00021522,87.9155,1.8207,90.9508,130.7187,0,U,49108,999,523,-.10810383E+0,-.4209E-3,0
ONEWEB-0292,2021-083A,2026-07-06T21:29:35.856096,13.13468858,.00018607,87.8970,316.3144,95.8623,264.2718,0,U,49186,999,23351,.60910007E-3,.235E-5,0
ONEWEB-0303,2021-083B,2026-07-06T22:56:23.076096,13.18687961,.00018345,87.9186,331.5243,90.8331,269.3011,0,U,49187,999,23258,.1361992E-3,.67E-6,0
ONEWEB-0306,2021-083C,2026-07-07T07:48:07.824384,13.18684664,.00020048,87.9192,331.4393,101.8838,258.2519,0,U,49188,999,23267,.11326626E-3,.58E-6,0
ONEWEB-0307,2021-083D,2026-07-07T08:19:13.953792,13.13471294,.00018525,87.8976,316.2230,95.6756,264.4585,0,U,49189,999,23357,.11437906E-2,.43E-5,0
ONEWEB-0320,2021-083E,2026-07-07T08:17:16.327968,13.18687072,.00018874,87.9179,331.4515,97.7296,262.4050,0,U,49190,999,23263,.65441591E-4,.39E-6,0
ONEWEB-0321,2021-083F,2026-07-07T04:49:10.964640,13.20773300,.00021807,87.9191,270.4468,106.9376,253.1997,0,U,49191,999,23947,-.15473264E-4,.7E-7,0
ONEWEB-0322,2021-083G,2026-07-07T08:13:09.477120,13.13470329,.00018425,87.8973,316.2233,113.2084,246.9239,0,U,49192,999,23356,.10282925E-2,.388E-5,0
ONEWEB-0324,2021-083H,2026-07-06T22:32:07.807200,13.18686326,.00020723,87.9192,331.5215,96.0145,264.1223,0,U,49193,999,23260,.55862166E-4,.35E-6,0
ONEWEB-0325,2021-083J,2026-07-07T09:32:33.039168,13.18687150,.00018006,87.9182,331.4368,98.0582,262.0754,0,U,49194,999,23267,.98512742E-4,.52E-6,0
ONEWEB-0326,2021-083K,2026-07-07T08:05:21.561504,13.18686476,.00017402,87.9190,331.4485,88.5738,271.5594,0,U,49195,999,23265,.14107997E-3,.69E-6,0
ONEWEB-0327,2021-083L,2026-07-07T09:54:13.040352,13.18686402,.00015656,87.9180,331.4360,87.7670,272.3641,0,U,49196,999,23268,.18581344E-3,.86E-6,0
ONEWEB-0328,2021-083M,2026-07-07T07:58:31.492416,13.13469902,.00020291,87.8988,316.2000,97.5741,262.5619,0,U,49197,999,23354,.61545819E-3,.238E-5,0
ONEWEB-0331,2021-083N,2026-07-06T22:49:06.128832,13.18684389,.0001831,87.9192,331.5191,85.0797,275.0544,0,U,49198,999,23261,.14109589E-3,.69E-6,0
ONEWEB-0333,2021-083P,2026-07-07T13:20:17.728800,13.13470043,.00018508,87.8973,316.1805,99.7268,260.4070,0,U,49199,999,23358,-.11743652E-3,-.3E-6,0
ONEWEB-0334,2021-083Q,2026-07-07T05:09:46.164096,13.20774579,.00021723,87.9191,270.4540,121.7214,238.4131,0,U,49200,999,23943,.31114336E-4,.26E-6,0
ONEWEB-0335,2021-083R,2026-07-07T11:23:15.417600,13.13472652,.00019083,87.8973,316.1936,93.9043,266.2305,0,U,49201,999,23358,-.42748256E-4,-.3E-7,0
